start=new Date('2021-10-04T00:00:00.000Z').valueOf();
sats=[{"EPOCH":"2021-10-03T20:20:29.922720","OBJECT_ID":"2021-012AY","ELEMENT_SET_NO":"999","REF_FRAME":"TEME","SEMIMAJOR_AXIS":"6925.351","MEAN_MOTION":"15.06399128","TLE_LINE1":"1 47666U 21012AY  21276.84756855  .00001217  00000-0  10060-3 0  9992","FILE":"3143202","MEAN_ANOMALY":"288.3485","NORAD_CAT_ID":"47666","OBJECT_TYPE":"PAYLOAD","PERIOD":"95.592","CENTER_NAME":"EARTH","SITE":"AFETR","ECCENTRICITY":"0.00018620","COUNTRY_CODE":"US","EPHEMERIS_TYPE":"0","OBJECT_NAME":"STARLINK-2057","RCS_SIZE":"MEDIUM","REV_AT_EPOCH":"3649","CLASSIFICATION_TYPE":"U","MEAN_MOTION_DDOT":"0.0000000000000","BSTAR":"0.00010060000000","INCLINATION":"53.0549","TIME_SYSTEM":"UTC","MEAN_ELEMENT_THEORY":"SGP4","PERIAPSIS":"545.927","TLE_LINE2":"2 47666  53.0549 109.3847 0001862  71.7706 288.3485 15.06399128 36498","LAUNCH_DATE":"2021-02-16","MEAN_MOTION_DOT":"0.00001217","DECAY_DATE":null,"ARG_OF_PERICENTER":"71.7706","RA_OF_ASC_NODE":"109.3847","APOAPSIS":"548.506","GP_ID":"186141669"},{"FILE":"3143202","TLE_LINE1":"1 47667U 21012AZ  21276.87017812 -.00000254  00000-0  18570-5 0  9996","SEMIMAJOR_AXIS":"6925.378","MEAN_MOTION":"15.06390291","MEAN_ANOMALY":"270.8787","EPOCH":"2021-10-03T20:53:03.389568","OBJECT_ID":"2021-012AZ","REF_FRAME":"TEME","ELEMENT_SET_NO":"999","COUNTRY_CODE":"US","EPHEMERIS_TYPE":"0","OBJECT_NAME":"STARLINK-2058","REV_AT_EPOCH":"3612","RCS_SIZE":"LARGE","PERIOD":"95.593","CENTER_NAME":"EARTH","SITE":"AFETR","NORAD_CAT_ID":"47667","OBJECT_TYPE":"PAYLOAD","ECCENTRICITY":"0.00017480","PERIAPSIS":"546.033","MEAN_ELEMENT_THEORY":"SGP4","LAUNCH_DATE":"2021-02-16","TLE_LINE2":"2 47667  53.0562 134.2948 0001748  89.2402 270.8787 15.06390291 36126","MEAN_MOTION_DOT":"-0.00000254","CLASSIFICATION_TYPE":"U","INCLINATION":"53.0562","TIME_SYSTEM":"UTC","MEAN_MOTION_DDOT":"0.0000000000000","BSTAR":"0.00000185700000","RA_OF_ASC_NODE":"134.2948","APOAPSIS":"548.454","ARG_OF_PERICENTER":"89.2402","GP_ID":"186142907","DECAY_DATE":null},{"ECCENTRICITY":"0.00021320","PERIOD":"95.593","SITE":"AFETR","CENTER_NAME":"EARTH","NORAD_CAT_ID":"47668","OBJECT_TYPE":"PAYLOAD","REV_AT_EPOCH":"3642","RCS_SIZE":"LARGE","COUNTRY_CODE":"US","EPHEMERIS_TYPE":"0","OBJECT_NAME":"STARLINK-2059","REF_FRAME":"TEME","ELEMENT_SET_NO":"999","EPOCH":"2021-10-03T20:18:33.023520","OBJECT_ID":"2021-012BA","MEAN_ANOMALY":"277.8142","FILE":"3143202","TLE_LINE1":"1 47668U 21012BA  21276.84621555 -.00000329  00000-0 -31788-5 0  9999","SEMIMAJOR_AXIS":"6925.378","MEAN_MOTION":"15.06390474","DECAY_DATE":null,"GP_ID":"186143158","RA_OF_ASC_NODE":"114.4131","APOAPSIS":"548.719","ARG_OF_PERICENTER":"82.3089","INCLINATION":"53.0550","TIME_SYSTEM":"UTC","MEAN_MOTION_DDOT":"0.0000000000000","BSTAR":"-0.00000317880000","CLASSIFICATION_TYPE":"U","LAUNCH_DATE":"2021-02-16","TLE_LINE2":"2 47668  53.0550 114.4131 0002132  82.3089 277.8142 15.06390474 36429","MEAN_MOTION_DOT":"-0.00000329","PERIAPSIS":"545.766","MEAN_ELEMENT_THEORY":"SGP4"},{"CLASSIFICATION_TYPE":"U","MEAN_MOTION_DDOT":"0.0000000000000","BSTAR":"-0.02540300000000","INCLINATION":"53.0407","TIME_SYSTEM":"UTC","MEAN_ELEMENT_THEORY":"SGP4","PERIAPSIS":"445.228","LAUNCH_DATE":"2021-02-16","TLE_LINE2":"2 47669  53.0407  41.2852 0001524  42.8798  40.0000 15.39947069  3702","MEAN_MOTION_DOT":"-0.00940919","DECAY_DATE":null,"ARG_OF_PERICENTER":"42.8798","APOAPSIS":"447.308","RA_OF_ASC_NODE":"41.2852","GP_ID":"186141906","EPOCH":"2021-10-03T22:00:01.999584","OBJECT_ID":"2021-012BB","ELEMENT_SET_NO":"999","REF_FRAME":"TEME","SEMIMAJOR_AXIS":"6824.403","MEAN_MOTION":"15.39947069","TLE_LINE1":"1 47669U 21012BB  21276.91668981 -.00940919  00000-0 -25403-1 0  9993","FILE":"3143202","MEAN_ANOMALY":"40.0000","NORAD_CAT_ID":"47669","OBJECT_TYPE":"PAYLOAD","PERIOD":"93.510","SITE":"AFETR","CENTER_NAME":"EARTH","ECCENTRICITY":"0.00015240","COUNTRY_CODE":"US","EPHEMERIS_TYPE":"0","OBJECT_NAME":"STARLINK-2060","RCS_SIZE":"MEDIUM","REV_AT_EPOCH":"370"},{"ECCENTRICITY":"0.00053070","SITE":"AFETR","CENTER_NAME":"EARTH","PERIOD":"95.593","OBJECT_TYPE":"PAYLOAD","NORAD_CAT_ID":"47670","REV_AT_EPOCH":"3641","RCS_SIZE":"LARGE","OBJECT_NAME":"STARLINK-2062","COUNTRY_CODE":"US","EPHEMERIS_TYPE":"0","REF_FRAME":"TEME","ELEMENT_SET_NO":"999","OBJECT_ID":"2021-012BC","EPOCH":"2021-10-03T20:39:45.201312","MEAN_ANOMALY":"75.1100","TLE_LINE1":"1 47670U 21012BC  21276.86093983  .00002108  00000-0  16049-3 0  9998","FILE":"3143202","MEAN_MOTION":"15.06382384","SEMIMAJOR_AXIS":"6925.403","DECAY_DATE":null,"GP_ID":"186142156","RA_OF_ASC_NODE":"114.3254","APOAPSIS":"550.943","ARG_OF_PERICENTER":"284.9301","TIME_SYSTEM":"UTC","INCLINATION":"53.0531","BSTAR":"0.00016049000000","MEAN_MOTION_DDOT":"0.0000000000000","CLASSIFICATION_TYPE":"U","MEAN_MOTION_DOT":"0.00002108","LAUNCH_DATE":"2021-02-16","TLE_LINE2":"2 47670  53.0531 114.3254 0005307 284.9301  75.1100 15.06382384 36413","PERIAPSIS":"543.592","MEAN_ELEMENT_THEORY":"SGP4"},{"ECCENTRICITY":"0.00021260","SITE":"AFETR","CENTER_NAME":"EARTH","PERIOD":"95.592","OBJECT_TYPE":"PAYLOAD","NORAD_CAT_ID":"47671","REV_AT_EPOCH":"3642","RCS_SIZE":"LARGE","OBJECT_NAME":"STARLINK-2064","COUNTRY_CODE":"US","EPHEMERIS_TYPE":"0","REF_FRAME":"TEME","ELEMENT_SET_NO":"999","OBJECT_ID":"2021-012BD","EPOCH":"2021-10-03T20:13:14.422656","MEAN_ANOMALY":"275.1819","TLE_LINE1":"1 47671U 21012BD  21276.84252804 -.00000134  00000-0  99271-5 0  9994","FILE":"3143202","MEAN_MOTION":"15.06394565","SEMIMAJOR_AXIS":"6925.365","DECAY_DATE":null,"GP_ID":"186142421","RA_OF_ASC_NODE":"114.4226","APOAPSIS":"548.703","ARG_OF_PERICENTER":"84.9413","TIME_SYSTEM":"UTC","INCLINATION":"53.0545","MEAN_MOTION_DDOT":"0.0000000000000","BSTAR":"0.00000992710000","CLASSIFICATION_TYPE":"U","MEAN_MOTION_DOT":"-0.00000134","TLE_LINE2":"2 47671  53.0545 114.4226 0002126  84.9413 275.1819 15.06394565 36421","LAUNCH_DATE":"2021-02-16","PERIAPSIS":"545.758","MEAN_ELEMENT_THEORY":"SGP4"},{"DECAY_DATE":null,"GP_ID":"186142672","ARG_OF_PERICENTER":"59.7656","APOAPSIS":"548.451","RA_OF_ASC_NODE":"104.5128","MEAN_MOTION_DDOT":"0.0000000000000","BSTAR":"-0.00001875700000","INCLINATION":"53.0520","TIME_SYSTEM":"UTC","CLASSIFICATION_TYPE":"U","TLE_LINE2":"2 47672  53.0520 104.5128 0001734  59.7656 300.3504 15.06387986 36532","LAUNCH_DATE":"2021-02-16","MEAN_MOTION_DOT":"-0.00000561","MEAN_ELEMENT_THEORY":"SGP4","PERIAPSIS":"546.050","ECCENTRICITY":"0.00017340","NORAD_CAT_ID":"47672","OBJECT_TYPE":"PAYLOAD","PERIOD":"95.593","SITE":"AFETR","CENTER_NAME":"EARTH","RCS_SIZE":"LARGE","REV_AT_EPOCH":"3653","COUNTRY_CODE":"US","EPHEMERIS_TYPE":"0","OBJECT_NAME":"STARLINK-2065","ELEMENT_SET_NO":"999","REF_FRAME":"TEME","EPOCH":"2021-10-03T19:42:43.420896","OBJECT_ID":"2021-012BE","MEAN_ANOMALY":"300.3504","SEMIMAJOR_AXIS":"6925.385","MEAN_MOTION":"15.06387986","TLE_LINE1":"1 47672U 21012BE  21276.82133589 -.00000561  00000-0 -18757-4 0  9995","FILE":"3143202"},{"ECCENTRICITY":"0.00017660","NORAD_CAT_ID":"47673","OBJECT_TYPE":"PAYLOAD","PERIOD":"95.593","SITE":"AFETR","CENTER_NAME":"EARTH","RCS_SIZE":"LARGE","REV_AT_EPOCH":"3641","COUNTRY_CODE":"US","EPHEMERIS_TYPE":"0","OBJECT_NAME":"STARLINK-2066","ELEMENT_SET_NO":"999","REF_FRAME":"TEME","EPOCH":"2021-10-03T20:45:05.432544","OBJECT_ID":"2021-012BF","MEAN_ANOMALY":"268.8685","SEMIMAJOR_AXIS":"6925.369","MEAN_MOTION":"15.06393194","TLE_LINE1":"1 47673U 21012BF  21276.86464621 -.00000178  00000-0  69259-5 0  9991","FILE":"3143202","DECAY_DATE":null,"GP_ID":"186141420","ARG_OF_PERICENTER":"91.2506","APOAPSIS":"548.457","RA_OF_ASC_NODE":"114.3079","BSTAR":"0.00000692590000","MEAN_MOTION_DDOT":"0.0000000000000","INCLINATION":"53.0548","TIME_SYSTEM":"UTC","CLASSIFICATION_TYPE":"U","LAUNCH_DATE":"2021-02-16","TLE_LINE2":"2 47673  53.0548 114.3079 0001766  91.2506 268.8685 15.06393194 36410","MEAN_MOTION_DOT":"-0.00000178","MEAN_ELEMENT_THEORY":"SGP4","PERIAPSIS":"546.011"},{"DECAY_DATE":null,"ARG_OF_PERICENTER":"89.8064","RA_OF_ASC_NODE":"114.5386","APOAPSIS":"548.367","GP_ID":"186141670","CLASSIFICATION_TYPE":"U","BSTAR":"0.00010992000000","MEAN_MOTION_DDOT":"0.0000000000000","TIME_SYSTEM":"UTC","INCLINATION":"53.0538","MEAN_ELEMENT_THEORY":"SGP4","PERIAPSIS":"546.069","MEAN_MOTION_DOT":"0.00001356","TLE_LINE2":"2 47674  53.0538 114.5386 0001659  89.8064 270.3115 15.06398563 36417","LAUNCH_DATE":"2021-02-16","OBJECT_TYPE":"PAYLOAD","NORAD_CAT_ID":"47674","CENTER_NAME":"EARTH","SITE":"AFETR","PERIOD":"95.592","ECCENTRICITY":"0.00016590","OBJECT_NAME":"STARLINK-2067","COUNTRY_CODE":"US","EPHEMERIS_TYPE":"0","RCS_SIZE":"LARGE","REV_AT_EPOCH":"3641","OBJECT_ID":"2021-012BG","EPOCH":"2021-10-03T19:30:46.400256","ELEMENT_SET_NO":"999","REF_FRAME":"TEME","MEAN_MOTION":"15.06398563","SEMIMAJOR_AXIS":"6925.353","FILE":"3143202","TLE_LINE1":"1 47674U 21012BG  21276.81303704  .00001356  00000-0  10992-3 0  9997","MEAN_ANOMALY":"270.3115"},{"ECCENTRICITY":"0.00018610","NORAD_CAT_ID":"47675","OBJECT_TYPE":"PAYLOAD","PERIOD":"95.592","SITE":"AFETR","CENTER_NAME":"EARTH","RCS_SIZE":"LARGE","REV_AT_EPOCH":"3641","COUNTRY_CODE":"US","EPHEMERIS_TYPE":"0","OBJECT_NAME":"STARLINK-2078","ELEMENT_SET_NO":"999","REF_FRAME":"TEME","EPOCH":"2021-10-03T19:20:09.142368","OBJECT_ID":"2021-012BH","MEAN_ANOMALY":"283.4902","SEMIMAJOR_AXIS":"6925.358","MEAN_MOTION":"15.06396962","FILE":"3143202","TLE_LINE1":"1 47675U 21012BH  21276.80566137 -.00000802  00000-0 -34957-4 0  9993","DECAY_DATE":null,"GP_ID":"186142908","ARG_OF_PERICENTER":"76.6295","RA_OF_ASC_NODE":"114.5731","APOAPSIS":"548.512","MEAN_MOTION_DDOT":"0.0000000000000","BSTAR":"-0.00003495700000","INCLINATION":"53.0552","TIME_SYSTEM":"UTC","CLASSIFICATION_TYPE":"U","TLE_LINE2":"2 47675  53.0552 114.5731 0001861  76.6295 283.4902 15.06396962 36413","LAUNCH_DATE":"2021-02-16","MEAN_MOTION_DOT":"-0.00000802","MEAN_ELEMENT_THEORY":"SGP4","PERIAPSIS":"545.934"}];
